0 GALAXY 7
1 22205U 92072A   13282.25732448 -.00000239  00000-0  10000-3 0   712
2 22205 011.1672 044.5806 0003244 268.0839 091.8821 00.99697697 70735
0 GALAXY 7
1 22205U 92072A   13285.26631341 -.00000219  00000-0  10000-3 0   725
2 22205 011.1724 044.5452 0003019 266.7628 093.2097 00.99696649 70761
0 GALAXY 7
1 22205U 92072A   13288.27529257 -.00000190  00000-0  10000-3 0   730
2 22205 011.1776 044.5098 0002662 259.5127 100.4491 00.99695677 70793
0 GALAXY 7
1 22205U 92072A   13291.28425946 -.00000154  00000-0  10000-3 0   746
2 22205 011.1830 044.4746 0002887 253.0042 106.9298 00.99694883 70825
0 GALAXY 7
1 22205U 92072A   13293.29027639 -.00000127  00000-0  10000-3 0   757
2 22205 011.1864 044.4509 0002626 251.1800 108.7496 00.99694453 70846
0 GALAXY 7
1 22205U 92072A   13295.29631824 -.00000099  00000-0  10000-3 0   765
2 22205 011.1898 044.4273 0002417 248.3361 111.5937 00.99694100 70862
